ORBCOMM FM103           
1 40091U 14040F   25333.64493339  .00000706  00000+0  18696-3 0  9995
2 40091  47.0062 316.2405 0002506 306.4046  53.6608 14.58496952588251
ORBCOMM FM114           
1 41179U 15081A   25333.11399064  .00000638  00000+0  17230-3 0  9998
2 41179  47.0022 227.7106 0002042   8.7586 351.3335 14.58532163528541
ORBCOMM FM119           
1 41180U 15081B   25333.72597949  .00000663  00000+0  17782-3 0  9999
2 41180  46.9986 134.1740 0000537 112.8518 247.2424 14.58462772529882
ORBCOMM FM105           
1 41181U 15081C   25333.78949241  .00000206  00000+0  10250-3 0  9998
2 41181  46.9995 154.9914 0001796 328.9321  31.1453 14.45384851524701
ORBCOMM FM110           
1 41182U 15081D   25333.65221654  .00000856  00000+0  21846-3 0  9990
2 41182  47.0013 224.6757 0002607 248.6913 111.3694 14.58598641528498
ORBCOMM FM118           
1 41183U 15081E   25333.68654494  .00000718  00000+0  18931-3 0  9994
2 41183  47.0034 224.8068 0002663 203.5141 156.5623 14.58543230528604
ORBCOMM FM112           
1 41184U 15081F   25333.75790179  .00000821  00000+0  21091-3 0  9990
2 41184  46.9972 133.0118 0000961   2.9409 357.1482 14.58611739529836
ORBCOMM FM113           
1 41185U 15081G   25333.80369668  .00000821  00000+0  21104-3 0  9997
2 41185  46.9990 133.1498 0000644  22.2634 337.8280 14.58602621529822
